CALSPHERE 1             
1 00900U 64063C   25110.19391337  .00001176  00000+0  11993-2 0  9992
2 00900  90.2145  62.0728 0026888 127.6146 338.5223 13.75988964 13231
CALSPHERE 2             
1 00902U 64063E   25110.36026679  .00000085  00000+0  11444-3 0  9997
2 00902  90.2289  65.8852 0019256  20.9788 105.5446 13.52857929799555
LCS 1                   
1 01361U 65034C   25109.97346686 -.00000004  00000+0 -15889-2 0  9993
2 01361  32.1380 101.8750 0011713  62.6480 297.5208  9.89308473167975
TEMPSAT 1               
1 01512U 65065E   25110.19372461  .00000059  00000+0  10076-3 0  9993
2 01512  89.9780 213.0533 0069335 358.1435  69.4198 13.33561671903672
CALSPHERE 4A            
1 01520U 65065H   25109.92373083  .00000151  00000+0  27314-3 0  9998
2 01520  89.9208 126.1507 0068174 216.6062 216.7581 13.36186549906187
OPS 5712 (P/L 160)      
1 02826U 67053A   25109.90336416  .00010595  00000+0  17854-2 0  9994
2 02826  69.9217 349.0676 0005162 260.7184  99.3376 14.69703224  3874
OPS 5712 (P/L 153)      
1 02874U 67053H   25109.97109495  .00000115  00000+0  12124-3 0  9992
2 02874  69.9733 302.3702 0006513   5.1212 354.9959 13.96738919948161
SURCAL 150B             
1 02909U 67053J   25110.14578636  .00114594  00000+0  57337-2 0  9990
2 02909  69.9254 257.3370 0007585 253.5508 106.4827 15.16775915 17426
RIGIDSPHERE 2 (LCS 4)   
1 05398U 71067E   25109.96211575  .00001219  00000+0  39661-3 0  9999
2 05398  87.6145  96.3298 0059722 194.2579 165.6937 14.37087239813088
COSMOS 2493 (SKRL-756 1)
1 39490U 13078A   25110.57244996  .00005316  00000+0  43759-3 0  9994
2 39490  82.4129 313.5705 0012974 226.7894 133.2247 14.98862136614919
COSMOS 2494 (SKRL-756 2)
1 39491U 13078B   25110.47341368  .00006166  00000+0  47780-3 0  9997
2 39491  82.4116 304.6869 0017282 193.2231 166.8543 15.01143846615397
